[{"OBJECT_NAME":"SHIJIAN-6 05A (SJ-6 05A)","OBJECT_ID":"2021-122A","EPOCH":"2026-03-09T21:12:10.842048","MEAN_MOTION":14.99085264,"ECCENTRICITY":0.0003221,"INCLINATION":97.4012,"RA_OF_ASC_NODE":42.3306,"ARG_OF_PERICENTER":76.6317,"MEAN_ANOMALY":283.5266,"EPHEMERIS_TYPE":0,"CLASSIFICATION_TYPE":"U","NORAD_CAT_ID":49961,"ELEMENT_SET_NO":999,"REV_AT_EPOCH":23387,"BSTAR":0.00027617,"MEAN_MOTION_DOT":3.299e-5,"MEAN_MOTION_DDOT":0},{"OBJECT_NAME":"STARLINK-32924","OBJECT_ID":"2025-037R","EPOCH":"2026-03-09T22:45:33.798240","MEAN_MOTION":14.98337023,"ECCENTRICITY":0.00028121,"INCLINATION":70.0035,"RA_OF_ASC_NODE":353.6927,"ARG_OF_PERICENTER":257.7361,"MEAN_ANOMALY":102.3483,"EPHEMERIS_TYPE":0,"CLASSIFICATION_TYPE":"U","NORAD_CAT_ID":63092,"ELEMENT_SET_NO":999,"REV_AT_EPOCH":5864,"BSTAR":0.0006750261,"MEAN_MOTION_DOT":7.972e-5,"MEAN_MOTION_DDOT":0}]
